IRIDIUM 26              
1 24903U 97043A   25162.40710167  .00000334  00000+0  10575-3 0  9993
2 24903  86.3953 113.0507 0002469  87.5094 272.6386 14.37142019456387
IRIDIUM 22              
1 24907U 97043E   25161.91404218  .00000251  00000+0  79837-4 0  9994
2 24907  86.3956 116.7915 0002331  84.9639 275.1824 14.35954705455869
DUMMY MASS 1            
1 24925U 97048A   25162.42796413  .00000317  00000+0  32280-4 0  9991
2 24925  86.3347 137.9918 0007565 148.8724 211.2950 14.86982273504515
DUMMY MASS 2            
1 24926U 97048B   25162.45645369  .00000309  00000+0  31521-4 0  9996
2 24926  86.3347 139.5844 0007876 160.6431 199.5094 14.86734437504293
IRIDIUM 29              
1 24944U 97051A   25162.00885285  .00000325  00000+0  10404-3 0  9998
2 24944  86.3963 146.4884 0002119  85.4035 274.7404 14.36463240452601
IRIDIUM 33              
1 24946U 97051C   25162.47205117  .00000240  00000+0  77434-4 0  9994
2 24946  86.3878 145.5536 0010094  95.3411 264.8937 14.34889482451935
IRIDIUM 28              
1 24948U 97051E   25162.47387931  .00000255  00000+0  78744-4 0  9992
2 24948  86.3968 143.8133 0002764  91.0091 269.1423 14.37382733453090
IRIDIUM 36              
1 24967U 97056C   25161.60286201  .00000317  00000+0  99098-4 0  9994
2 24967  86.3986 175.7620 0002507  85.6938 274.4546 14.37605331451275
